{
    "links": {
        "self": "http://www.neowsapp.com/rest/v1/neo/3689269?api_key=iIulBulltgU6a56xZRHN4H3l9WmuAYTsLGpBGhQ2"
    },
    "id": "3689269",
    "neo_reference_id": "3689269",
    "name": "(2014 SN1)",
    "designation": "2014 SN1",
    "nasa_jpl_url": "http://ssd.jpl.nasa.gov/sbdb.cgi?sstr=3689269",
    "absolute_magnitude_h": 24.6,
    "estimated_diameter": {
        "kilometers": {
            "estimated_diameter_min": 0.0319561887,
            "estimated_diameter_max": 0.0714562102
        },
        "meters": {
            "estimated_diameter_min": 31.9561886721,
            "estimated_diameter_max": 71.4562101727
        },
        "miles": {
            "estimated_diameter_min": 0.0198566489,
            "estimated_diameter_max": 0.0444008168
        },
        "feet": {
            "estimated_diameter_min": 104.8431420431,
            "estimated_diameter_max": 234.436392583
        }
    },
    "is_potentially_hazardous_asteroid": false,
    "close_approach_data": [
        {
            "close_approach_date": "2014-08-31",
            "close_approach_date_full": "2014-Aug-31 20:09",
            "epoch_date_close_approach": 1409515740000,
            "relative_velocity": {
                "kilometers_per_second": "14.2178023811",
                "kilometers_per_hour": "51184.0885720266",
                "miles_per_hour": "31803.802146324"
            },
            "miss_distance": {
                "astronomical": "0.0317532061",
                "lunar": "12.3519971729",
                "kilometers": "4750211.998231007",
                "miles": "2951644.8661096166"
            },
            "orbiting_body": "Earth"
        },
        {
            "close_approach_date": "2056-08-24",
            "close_approach_date_full": "2056-Aug-24 05:36",
            "epoch_date_close_approach": 2734320960000,
            "relative_velocity": {
                "kilometers_per_second": "13.339606389",
                "kilometers_per_hour": "48022.5830002394",
                "miles_per_hour": "29839.3655314543"
            },
            "miss_distance": {
                "astronomical": "0.0928134507",
                "lunar": "36.1044323223",
                "kilometers": "13884694.532070009",
                "miles": "8627549.1174597642"
            },
            "orbiting_body": "Earth"
        }
    ],
    "orbital_data": {
        "orbit_id": "11",
        "orbit_determination_date": "2017-04-06 08:38:39",
        "first_observation_date": "2014-09-18",
        "last_observation_date": "2014-10-01",
        "data_arc_in_days": 13,
        "observations_used": 37,
        "orbit_uncertainty": "8",
        "minimum_orbit_intersection": ".0251176",
        "jupiter_tisserand_invariant": "2.932",
        "epoch_osculation": "2456922.5",
        "eccentricity": ".6871801799673166",
        "semi_major_axis": "2.777365462461957",
        "inclination": "4.275497295586107",
        "ascending_node_longitude": "359.4818783604175",
        "orbital_period": "1690.627670356457",
        "perihelion_distance": ".8688149641323398",
        "perihelion_argument": "291.412595076882",
        "aphelion_distance": "4.685915960791574",
        "perihelion_time": "2456867.626168122931",
        "mean_anomaly": "11.68476053132369",
        "mean_motion": ".2129386655100094",
        "equinox": "J2000",
        "orbit_class": {
            "orbit_class_type": "APO",
            "orbit_class_description": "Near-Earth asteroid orbits which cross the Earth’s orbit similar to that of 1862 Apollo",
            "orbit_class_range": "a (semi-major axis) > 1.0 AU; q (perihelion) < 1.017 AU"
        }
    },
    "is_sentry_object": false
}